ALOS (DAICHI)           
1 28931U 06002A   23303.87931170  .00002381  00000+0  45619-3 0  9999
2 28931  98.0062 257.4994 0001941 111.7408 248.4001 14.64673995947628
